[{"OBJECT_NAME":"STARLINK-5926","OBJECT_ID":"2023-037AG","EPOCH":"2026-03-09T21:23:16.268928","MEAN_MOTION":14.98337472,"ECCENTRICITY":0.00027242,"INCLINATION":69.998,"RA_OF_ASC_NODE":283.8156,"ARG_OF_PERICENTER":270.4754,"MEAN_ANOMALY":89.6093,"EPHEMERIS_TYPE":0,"CLASSIFICATION_TYPE":"U","NORAD_CAT_ID":55944,"ELEMENT_SET_NO":999,"REV_AT_EPOCH":16401,"BSTAR":4.3170386e-5,"MEAN_MOTION_DOT":4.22e-6,"MEAN_MOTION_DDOT":0},{"OBJECT_NAME":"CZ-4B DEB","OBJECT_ID":"2006-015D","EPOCH":"2026-03-08T23:49:50.125728","MEAN_MOTION":14.74549733,"ECCENTRICITY":0.01202299,"INCLINATION":97.7844,"RA_OF_ASC_NODE":81.2278,"ARG_OF_PERICENTER":82.9024,"MEAN_ANOMALY":278.5839,"EPHEMERIS_TYPE":0,"CLASSIFICATION_TYPE":"U","NORAD_CAT_ID":29537,"ELEMENT_SET_NO":999,"REV_AT_EPOCH":4708,"BSTAR":0.0014359335,"MEAN_MOTION_DOT":0.00010702,"MEAN_MOTION_DDOT":0}]
